{"fetched_at":"2026-03-30T06:02:59Z","count":15439,"tles":[{"name":"STARLINK-5653","line1":"1 55345U 23013Q   26086.95682379 -.00000258  00000+0  59673-7 0  9994","line2":"2 55345  43.0005 185.8080 0001212 277.0353  83.0361 15.26744951174635","category":"Starlink"}]}